KUIPER-00133            
1 65764U 25217C   25295.16667823 -.00550453  00000+0 -19588-1 0  9992
2 65764  51.8668 314.1288 0007847 206.0700 259.4510 15.30752738  4744
KUIPER-00139            
1 65765U 25217D   25295.13253448  .00052663  00000+0  15031-2 0  9992
2 65765  51.8669 314.1104 0006314 197.4213 162.6557 15.35500750  4109
KUIPER-00142            
1 65766U 25217E   25295.17747108  .00019562  00000+0  54767-3 0  9999
2 65766  51.8706 313.6704 0003023 147.6329 212.4843 15.36636703  4113
KUIPER-00145            
1 65767U 25217F   25295.18053546  .00024799  00000+0  69524-3 0  9992
2 65767  51.8720 313.6911 0003443 166.2202 193.8879 15.36443199  4119
KUIPER-00147            
1 65768U 25217G   25295.13097161  .00053011  00000+0  15084-2 0  9999
2 65768  51.8656 314.0979 0006407 190.9148 169.1700 15.35592363  4108
KUIPER-00148            
1 65769U 25217H   25295.20852081  .00028003  00000+0  82504-3 0  9993
2 65769  51.8605 313.8543 0009508 205.8752 154.1759 15.34781327  4117
KUIPER-00150            
1 65770U 25217J   25295.14123308  .00053172  00000+0  15444-2 0  9994
2 65770  51.8590 314.1519 0008576 204.8923 155.1649 15.34931540  4104
KUIPER-00151            
1 65771U 25217K   25295.11905161  .00041004  00000+0  11454-2 0  9995
2 65771  51.8700 314.0269 0004735 170.3487 189.7591 15.36293764  4104
